UMBRA-07                
1 58297U 23174AT  26189.71830524  .00006404  00000+0  40281-3 0  9995
2 58297  97.3779 244.6689 0002873  35.2924 324.8495 15.09541732146664
UMBRA-09                
1 60541U 24149CB  26189.81513300  .00009920  00000+0  48109-3 0  9997
2 60541  97.6968 277.4001 0001690 215.5385 144.5736 15.18714157104004
UMBRA-10                
1 60547U 24149CH  26189.81468238  .00010309  00000+0  49974-3 0  9996
2 60547  97.6970 277.4291 0001195 174.7318 185.3929 15.18720503104016
UMBRA-11                
1 66748U 25276CL  26189.74847939  .00015719  00000+0  58463-3 0  9991
2 66748  97.4190 264.2566 0002012 204.1956 155.9189 15.27598029 33783
UMBRA-12                
1 67371U 26004J   26189.94140441  .00003185  00000+0  34005-3 0  9990
2 67371  97.8021 188.4115 0007773  69.7129 290.4923 14.89500319 26545
